
AEROCUBE 4.5A
1 38767U 12048K   26169.97803684  .00461735  96258-4  99291-3 0  9998
2 38767  64.6225  20.3137 0019371 229.0136 130.9352 15.97862216372943

BEESAT-1
1 35933U 09051C   26170.23167478  .00000627  00000+0  13563-3 0  9997
2 35933  98.3962  77.7869 0004344 209.2616 150.8342 14.61723361889481

BRITE-AUSTRIA
1 39091U 13009F   26170.29768615  .00000120  00000+0  55501-4 0  9997
2 39091  98.3996 349.6811 0009231 229.4697 130.5686 14.36542792697356

BRITE-CA1 (TORONTO)
1 40020U 14033L   26170.07611923  .00000570  00000+0  93567-4 0  9997
2 40020  97.9743 298.9692 0077211 270.8542  88.3819 14.72678989642491

CANX-2
1 32790U 08021H   26168.88637359  .00003690  00000+0  25995-3 0  9994
2 32790  97.8640 148.6774 0011418  48.7586 311.4622 15.05623552984911

CUBEBUG-2 (LO-74)
1 39440U 13066AA  26170.27371325  .00004250  00000+0  39344-3 0  9998
2 39440  97.8910 119.2605 0058255  22.3553 338.0186 14.93777947677305

CUBESAT XI-IV (CO-57)
1 27848U 03031J   26169.99348946  .00000173  00000+0  94896-4 0  9992
2 27848  98.6765 178.2408 0009145 191.5731 168.5239 14.23621647191638

CUBESAT XI-V
1 28895U 05043F   26170.16921031  .00001082  00000+0  17802-3 0  9994
2 28895  98.2987 325.8325 0013788 194.2954 165.7865 14.72636023102045

CUTE-1 (CO-55)
1 27844U 03031E   26170.28511223  .00000210  00000+0  10996-3 0  9992
2 27844  98.6736 178.8176 0009679 171.9692 188.1644 14.24336816191977

CUTE-1.7+APD II (CO-65)
1 32785U 08021C   26170.23748738  .00004777  00000+0  30223-3 0  9991
2 32785  97.8277 151.6986 0009550  32.2622 327.9188 15.09467527985500

DUCHIFAT-1
1 40021U 14033M   26169.68438844  .00088318  00000+0  89916-3 0  9990
2 40021  98.0447 229.0553 0002814 113.8680 246.2872 15.64848252655988

FUNCUBE-1 (AO-73)
1 39444U 13066AE  26170.17779278  .00004907  00000+0  30582-3 0  9994
2 39444  97.8280 141.6651 0035813 193.8693 166.1555 15.09509465679963

GOMX-1
1 39430U 13066Q   26170.29685231  .00001368  00000+0  21021-3 0  9993
2 39430  97.6475  10.6258 0130121  70.8662 290.6579 14.69466237670221

ITUPSAT1
1 35935U 09051E   26170.22435493  .00000568  00000+0  12729-3 0  9990
2 35935  98.4046  76.9691 0006330 226.3575 133.7100 14.60443291889035

NANOSATC-BR1
1 40024U 14033Q   26170.03488025  .00013384  00000+0  44237-3 0  9998
2 40024  98.0717 202.5867 0004545 158.1624 201.9810 15.31505041654268

NEE-01 PEGASO
1 39151U 13018B   26170.14134703  .00002484  00000+0  24048-3 0  9999
2 39151  98.1227 314.3556 0013292 152.8656 207.3260 14.93668156710992

NEE-02 KRYSAOR
1 39441U 13066AB  26170.29573783  .00001979  00000+0  22034-3 0  9996
2 39441  97.8892 109.4951 0067574  63.4600 297.3522 14.86625800676518

PERSEUS-M2
1 40037U 14033AD  26170.27109581  .00001399  00000+0  13174-3 0  9994
2 40037  97.9965 120.8542 0010479 296.5159  63.4986 14.95514598651099

POPACS 2
1 39269U 13055E   26170.25665990  .00012578  00000+0  21242-3 0  9997
2 39269  80.9911 141.8234 0416748 187.1255 172.3929 14.91258090663525

POPACS 3
1 39270U 13055F   26169.90599161  .00007750  00000+0  18200-3 0  9991
2 39270  81.0000 227.3242 0552001  64.7663 300.9692 14.56148407638803

QB50P1
1 40025U 14033R   26170.25905701  .00006785  00000+0  33444-3 0  9993
2 40025  98.0964 181.5504 0008005 207.6997 152.3810 15.18285787653349

QB50P2
1 40032U 14033Y   26169.94923947  .00005820  00000+0  31389-3 0  9992
2 40032  98.0753 166.9392 0008169 158.0702 202.0879 15.15176502652932

SEEDS II (CO-66)
1 32791U 08021J   26169.44123302  .00014056  00000+0  44622-3 0  9992
2 32791  97.7517 167.3987 0000890 357.5135   2.6101 15.32786684987483

STRAND-1
1 39090U 13009E   26170.28390494  .00000193  00000+0  79422-4 0  9999
2 39090  98.3923 350.4666 0007835 218.3007 141.7624 14.37164225697362

SWISSCUBE
1 35932U 09051B   26170.22118169  .00000743  00000+0  15643-3 0  9998
2 35932  98.4033  78.1449 0006097 195.9849 164.1161 14.62484946889453

TISAT 1
1 36799U 10035E   26170.27288422  .00017485  00000+0  57204-3 0  9999
2 36799  98.0711 117.0067 0001682 165.4872 194.6416 15.31774466868023

TRITON-1
1 39427U 13066M   26170.25403347  .00001802  00000+0  22063-3 0  9991
2 39427  97.8248  80.0142 0088564 227.0667 132.3092 14.81713216674394

UWE-3
1 39446U 13066AG  26170.15401208  .00003664  00000+0  31638-3 0  9991
2 39446  97.8700 126.2408 0047320 314.5576  45.1785 14.97037831677877

WNISAT-1
1 39423U 13066H   26170.13263155  .00000733  00000+0  14226-3 0  9999
2 39423  97.7204 319.1508 0162074 225.4216 133.3662 14.58065199667013

ZACUBE-1 (TSHEPISOSAT)
1 39417U 13066B   26170.14032462  .00002311  00000+0  18198-3 0  9994
2 39417  97.8075 132.4874 0041049 240.9478 118.7631 15.01197255681023
